NORAD_CAT_ID,OBJECT_NAME,OBJECT_TYPE,EPOCH,MEAN_MOTION,ECCENTRICITY,INCLINATION,RA_OF_ASC_NODE,ARG_OF_PERICENTER,MEAN_ANOMALY,BSTAR,MEAN_MOTION_DOT,MEAN_MOTION_DDOT,TLE_LINE0,TLE_LINE1,TLE_LINE2,SEMIMAJOR_AXIS,PERIOD,APOGEE,PERIGEE,DECAYED
52500.0,STARLINK-3866,PAYLOAD,2022-05-24 02:55:28,15.7319886,0.0002172,53.2159,178.5811,25.2664,334.8462,0.00010041,0.00013493,0.0,0 STARLINK-3866,1 52500U 22049BB  22144.12185692  .00013493  00000-0  10041-3 0  9995,2 52500  53.2159 178.5811 0002172  25.2664 334.8462 15.73198860  2962,6727.898,91.533,351.225,348.302,0.0
52500.0,STARLINK-3866,PAYLOAD,2022-05-24 13:35:50,15.73226572,0.0001993,53.2158,176.3807,29.8403,330.273,0.00021069,0.00029085,0.0,0 STARLINK-3866,1 52500U 22049BB  22144.56655145  .00029085  00000-0  21069-3 0  9994,2 52500  53.2158 176.3807 0001993  29.8403 330.2730 15.73226572  2873,6727.819,91.532,351.025,348.344,0.0
52500.0,STARLINK-3866,PAYLOAD,2022-05-24 22:00:00,15.73250712,0.0002285,53.2161,174.6492,26.4753,157.7279,-0.00012591,-0.00018295,0.0,0 STARLINK-3866,1 52500U 22049BB  22144.91667824 -.00018295  00000-0 -12591-3 0  9993,2 52500  53.2161 174.6492 0002285  26.4753 157.7279 15.73250712  1304,6727.751,91.53,351.153,348.07800000000015,0.0
52500.0,STARLINK-3866,PAYLOAD,2022-05-25 06:00:00,15.73233302,0.0002454,53.216,173.0007,28.2476,244.9409,-0.00041507,-0.00058562,0.0,0 STARLINK-3866,1 52500U 22049BB  22145.25001157 -.00058562  00000-0 -41507-3 0  9992,2 52500  53.2160 173.0007 0002454  28.2476 244.9409 15.73233302  3131,6727.8,91.531,351.316,348.014,0.0
52500.0,STARLINK-3866,PAYLOAD,2022-05-25 14:00:01,15.73211106,0.0002595,53.2152,171.3522,25.4041,336.709,-0.00016317,-0.00023473,0.0,0 STARLINK-3866,1 52500U 22049BB  22145.58334491 -.00023473  00000-0 -16317-3 0  9992,2 52500  53.2152 171.3522 0002595  25.4041 336.7090 15.73211106  1310,6727.864000000001,91.533,351.474,347.983,0.0
52500.0,STARLINK-3866,PAYLOAD,2022-05-25 22:00:00,15.73156493,0.0002192,53.2152,169.7006,25.9312,65.14399999999999,0.00071256,0.00100403,0.0,0 STARLINK-3866,1 52500U 22049BB  22145.91667824  .00100403  00000-0  71256-3 0  9998,2 52500  53.2152 169.7006 0002192  25.9312  65.1440 15.73156493  3240,6728.019,91.536,351.3590000000001,348.409,0.0
52500.0,STARLINK-3866,PAYLOAD,2022-05-26 05:14:17,15.73255541,0.0001415,53.2156,168.2075,75.3362,284.7815,0.00017103,0.00023507,0.0,0 STARLINK-3866,1 52500U 22049BB  22146.21825883  .00023507  00000-0  17103-3 0  9993,2 52500  53.2156 168.2075 0001415  75.3362 284.7815 15.73255541  3299,6727.736999999999,91.53,350.55400000000014,348.65,0.0
52500.0,STARLINK-3866,PAYLOAD,2022-05-26 06:00:00,15.73220655,0.000229,53.2155,168.0524,23.2528,156.7398,-0.00028582,-0.00040582,0.0,0 STARLINK-3866,1 52500U 22049BB  22146.25001157 -.00040582  00000-0 -28582-3 0  9994,2 52500  53.2155 168.0524 0002290  23.2528 156.7398 15.73220655  3295,6727.8359999999975,91.532,351.242,348.161,0.0
52500.0,STARLINK-3866,PAYLOAD,2022-05-26 12:51:43,15.73165182,0.000262,53.2155,166.6357,28.2607,331.8555,-0.00016618,-0.00023847,0.0,0 STARLINK-3866,1 52500U 22049BB  22146.53591708 -.00023847  00000-0 -16618-3 0  9993,2 52500  53.2155 166.6357 0002620  28.2607 331.8555 15.73165182  3343,6727.994000000002,91.535,351.622,348.097,0.0
52500.0,STARLINK-3866,PAYLOAD,2022-05-26 14:23:11,15.73203023,0.0002219,53.2155,166.3212,29.0362,331.0781,6.780599999999997e-06,3.3e-06,0.0,0 STARLINK-3866,1 52500U 22049BB  22146.59943782  .00000330  00000-0  67806-5 0  9999,2 52500  53.2155 166.3212 0002219  29.0362 331.0781 15.73203023  3194,6727.887,91.533,351.244,348.259,0.0
52500.0,STARLINK-3866,PAYLOAD,2022-05-26 20:00:01,15.73183228,0.0002335,53.2157,165.1648,25.3709,220.2613,0.00014784,0.00020164,0.0,0 STARLINK-3866,1 52500U 22049BB  22146.83334491  .00020164  00000-0  14784-3 0  9999,2 52500  53.2157 165.1648 0002335  25.3709 220.2613 15.73183228  3387,6727.943,91.534,351.379,348.237,0.0
52500.0,STARLINK-3866,PAYLOAD,2022-05-26 22:00:00,15.73162086,0.000229,53.2154,164.7519,26.4913,331.3786,0.0004691,0.00065628,0.0,0 STARLINK-3866,1 52500U 22049BB  22146.91667824  .00065628  00000-0  46910-3 0  9997,2 52500  53.2154 164.7519 0002290  26.4913 331.3786 15.73162086  1309,6728.003000000002,91.535,351.409,348.32800000000015,0.0
52500.0,STARLINK-3866,PAYLOAD,2022-05-27 02:00:01,15.73212764,0.0002139,53.2157,163.9274,19.8963,202.4534,0.000123,0.00016686,0.0,0 STARLINK-3866,1 52500U 22049BB  22147.08334491  .00016686  00000-0  12300-3 0  9993,2 52500  53.2157 163.9274 0002139  19.8963 202.4534 15.73212764  3427,6727.859,91.532,351.163,348.285,0.0
52500.0,STARLINK-3866,PAYLOAD,2022-05-27 14:00:01,15.73187698,0.0002352,53.2146,161.4547,13.2913,162.4913,0.00030149,0.00041884,0.0,0 STARLINK-3866,1 52500U 22049BB  22147.58334491  .00041884  00000-0  30149-3 0  9997,2 52500  53.2146 161.4547 0002352  13.2913 162.4913 15.73187698  1309,6727.93,91.534,351.37800000000016,348.213,0.0
52500.0,STARLINK-3866,PAYLOAD,2022-05-27 16:00:00,15.73205101,0.0002275,53.2146,161.0416,13.3581,274.6489,7.0192e-05,9.243e-05,0.0,0 STARLINK-3866,1 52500U 22049BB  22147.66667824  .00009243  00000-0  70192-4 0  9991,2 52500  53.2146 161.0416 0002275  13.3581 274.6489 15.73205101  3515,6727.880999999999,91.533,351.276,348.215,0.0
52500.0,STARLINK-3866,PAYLOAD,2022-05-27 22:00:01,15.73213402,0.0002074,53.2146,159.8032,16.092,248.685,0.00011962,0.0001621,0.0,0 STARLINK-3866,1 52500U 22049BB  22147.91668981  .00016210  00000-0  11962-3 0  9995,2 52500  53.2146 159.8032 0002074  16.0920 248.6850 15.73213402  1309,6727.857,91.532,351.117,348.327,0.0
52500.0,STARLINK-3866,PAYLOAD,2022-05-28 04:30:09,15.73251003,0.000255,53.2152,158.4625,14.0682,346.0409,0.00013594,0.00018542,0.0,0 STARLINK-3866,1 52500U 22049BB  22148.18761509  .00018542  00000-0  13594-3 0  9998,2 52500  53.2152 158.4625 0002550  14.0682 346.0409 15.73251003  3608,6727.75,91.53,351.33,347.899,0.0
52500.0,STARLINK-3866,PAYLOAD,2022-05-28 14:00:01,15.73236758,0.0002361,53.2147,156.5058,17.3538,65.307,-4.3127e-05,-6.68e-05,0.0,0 STARLINK-3866,1 52500U 22049BB  22148.58334491 -.00006680  00000-0 -43127-4 0  9996,2 52500  53.2147 156.5058 0002361  17.3538  65.3070 15.73236758  3668,6727.79,91.531,351.244,348.06699999999995,0.0
52500.0,STARLINK-3866,PAYLOAD,2022-05-28 22:00:00,15.73219375,0.0002215,53.2149,154.8541,23.9081,147.7286,-0.00013899,-0.000201,0.0,0 STARLINK-3866,1 52500U 22049BB  22148.91667824 -.00020100  00000-0 -13899-3 0  9997,2 52500  53.2149 154.8541 0002215  23.9081 147.7286 15.73219375  1301,6727.84,91.532,351.195,348.215,0.0
52500.0,STARLINK-3866,PAYLOAD,2022-05-29 03:22:21,15.73211896,0.0002645,53.215,153.7474,13.6465,346.4626,-8.504299999999999e-05,-0.00012548,0.0,0 STARLINK-3866,1 52500U 22049BB  22149.14052336 -.00012548  00000-0 -85043-4 0  9997,2 52500  53.2150 153.7474 0002645  13.6465 346.4626 15.73211896  3752,6727.861,91.532,351.506,347.94699999999995,0.0
52500.0,STARLINK-3866,PAYLOAD,2022-05-29 14:00:01,15.73168059,0.0002415,53.2143,151.5569,22.0541,327.3993,-0.00065811,-0.00091871,0.0,0 STARLINK-3866,1 52500U 22049BB  22149.58334491 -.00091871  00000-0 -65811-3 0  9996,2 52500  53.2143 151.5569 0002415  22.0541 327.3993 15.73168059  3824,6727.986,91.535,351.476,348.226,0.0
52500.0,STARLINK-3866,PAYLOAD,2022-05-29 20:00:01,15.73082132,0.0002123,53.2145,150.3182,22.395,303.7263,0.00048559,0.00067739,0.0,0 STARLINK-3866,1 52500U 22049BB  22149.83334491  .00067739  00000-0  48559-3 0  9998,2 52500  53.2145 150.3182 0002123  22.3950 303.7263 15.73082132  3855,6728.231,91.54,351.525,348.668,0.0
52500.0,STARLINK-3866,PAYLOAD,2022-05-29 22:00:00,15.7307782,0.000207,53.2145,149.9057,22.4019,55.9243,0.00068371,0.00095936,0.0,0 STARLINK-3866,1 52500U 22049BB  22149.91667824  .00095936  00000-0  68371-3 0  9990,2 52500  53.2145 149.9057 0002070  22.4019  55.9243 15.73077820  1308,6728.244000000002,91.54,351.501,348.716,0.0
52500.0,STARLINK-3866,PAYLOAD,2022-05-30 14:00:01,15.73183119,0.0002314,53.2147,146.6086,20.3651,235.6422,0.00015053,0.00020543,0.0,0 STARLINK-3866,1 52500U 22049BB  22150.58334491  .00020543  00000-0  15053-3 0  9997,2 52500  53.2147 146.6086 0002314  20.3651 235.6422 15.73183119  1301,6727.943,91.534,351.365,348.251,0.0
52500.0,STARLINK-3866,PAYLOAD,2022-05-30 22:00:00,15.73176935,0.0002149,53.2152,144.9573,24.2711,320.648,0.00061376,0.00086325,0.0,0 STARLINK-3866,1 52500U 22049BB  22150.91667824  .00086325  00000-0  61376-3 0  9992,2 52500  53.2152 144.9573 0002149  24.2711 320.6480 15.73176935  4035,6727.9609999999975,91.535,351.272,348.38,0.0
52500.0,STARLINK-3866,PAYLOAD,2022-05-31 02:38:19,15.73176689,0.0002688,53.2147,144.0024,21.1866,338.9265,9.4536e-05,0.00012654,0.0,0 STARLINK-3866,1 52500U 22049BB  22151.10994516  .00012654  00000-0  94536-4 0  9994,2 52500  53.2147 144.0024 0002688  21.1866 338.9265 15.73176689  4068,6727.962,91.535,351.635,348.01800000000014,0.0
52500.0,STARLINK-3866,PAYLOAD,2022-05-31 06:00:02,15.73251156,0.0002331,53.2152,143.3098,21.3202,52.5997,-0.00057592,-0.00080864,0.0,0 STARLINK-3866,1 52500U 22049BB  22151.25002315 -.00080864  00000-0 -57592-3 0  9997,2 52500  53.2152 143.3098 0002331  21.3202  52.5997 15.73251156  1306,6727.749,91.53,351.18300000000005,348.046,0.0
52500.0,STARLINK-3866,PAYLOAD,2022-05-31 14:00:01,15.73213373,0.0002277,53.2148,141.6599,18.6217,144.1797,7.7768e-05,0.00010313,0.0,0 STARLINK-3866,1 52500U 22049BB  22151.58334491  .00010313  00000-0  77768-4 0  9994,2 52500  53.2148 141.6599 0002277  18.6217 144.1797 15.73213373  4131,6727.857,91.532,351.254,348.19,0.0
52500.0,STARLINK-3866,PAYLOAD,2022-05-31 22:00:00,15.73210098,0.0002029,53.2151,140.0088,22.7122,229.0349,0.00058426,0.00082222,0.0,0 STARLINK-3866,1 52500U 22049BB  22151.91667824  .00082222  00000-0  58426-3 0  9997,2 52500  53.2151 140.0088 0002029  22.7122 229.0349 15.73210098  1300,6727.866,91.533,351.096,348.366,0.0
